{
  "type": "FeatureCollection",
  "features": [
    {
      "type": "Feature",
      "properties": {
        "norad_id": 66947,
        "name": "STARLINK-36089",
        "group": "last-30-days",
        "lat": -27.66422537189515,
        "lon": -38.16226621085958,
        "alt_km": 396.8408233499322,
        "timestamp": "2025-12-25T20:42:37.409964+00:00",
        "meta_object_name": "STARLINK-36089",
        "meta_object_id": "2025-286Y",
        "meta_epoch": "2025-12-25T06:00:04.000320",
        "meta_mean_motion": 15.60930938,
        "meta_eccentricity": 0.00013748,
        "meta_inclination": 53.1594,
        "meta_ra_of_asc_node": 347.9573,
        "meta_arg_of_pericenter": 74.3391,
        "meta_mean_anomaly": 47.283,
        "meta_ephemeris_type": 0,
        "meta_classification_type": "U",
        "meta_norad_cat_id": 66947,
        "meta_element_set_no": 999,
        "meta_rev_at_epoch": 400,
        "meta_bstar": -0.026867284,
        "meta_mean_motion_dot": -0.02011789,
        "meta_mean_motion_ddot": 0,
        "tle_line1": "1 66947U 25286Y   25359.25004630 -.02011789  00000+0 -26867-1 0  9998",
        "tle_line2": "2 66947  53.1594 347.9573 0001374  74.3391  47.2830 15.60930938  4003"
      },
      "geometry": {
        "type": "Point",
        "coordinates": [
          -38.16226621085958,
          -27.66422537189515
        ]
      }
    },
    {
      "type": "Feature",
      "properties": {
        "norad_id": 66948,
        "name": "STARLINK-36116",
        "group": "last-30-days",
        "lat": -29.064832480719488,
        "lon": -39.64104386556638,
        "alt_km": 396.9508301414962,
        "timestamp": "2025-12-25T20:42:37.409973+00:00",
        "meta_object_name": "STARLINK-36116",
        "meta_object_id": "2025-286Z",
        "meta_epoch": "2025-12-25T06:00:04.000320",
        "meta_mean_motion": 15.60930083,
        "meta_eccentricity": 0.00013808,
        "meta_inclination": 53.1596,
        "meta_ra_of_asc_node": 347.9617,
        "meta_arg_of_pericenter": 73.2183,
        "meta_mean_anomaly": 46.4871,
        "meta_ephemeris_type": 0,
        "meta_classification_type": "U",
        "meta_norad_cat_id": 66948,
        "meta_element_set_no": 999,
        "meta_rev_at_epoch": 400,
        "meta_bstar": -0.026847308,
        "meta_mean_motion_dot": -0.02010425,
        "meta_mean_motion_ddot": 0,
        "tle_line1": "1 66948U 25286Z   25359.25004630 -.02010425  00000+0 -26847-1 0  9993",
        "tle_line2": "2 66948  53.1596 347.9617 0001380  73.2183  46.4871 15.60930083  4006"
      },
      "geometry": {
        "type": "Point",
        "coordinates": [
          -39.64104386556638,
          -29.064832480719488
        ]
      }
    },
    {
      "type": "Feature",
      "properties": {
        "norad_id": 66949,
        "name": "STARLINK-36096",
        "group": "last-30-days",
        "lat": -26.24796797837821,
        "lon": -36.7191986735645,
        "alt_km": 396.71917076604313,
        "timestamp": "2025-12-25T20:42:37.409983+00:00",
        "meta_object_name": "STARLINK-36096",
        "meta_object_id": "2025-286AA",
        "meta_epoch": "2025-12-25T06:00:04.000320",
        "meta_mean_motion": 15.60927452,
        "meta_eccentricity": 0.00014428,
        "meta_inclination": 53.1597,
        "meta_ra_of_asc_node": 347.9542,
        "meta_arg_of_pericenter": 74.2926,
        "meta_mean_anomaly": 49.2479,
        "meta_ephemeris_type": 0,
        "meta_classification_type": "U",
        "meta_norad_cat_id": 66949,
        "meta_element_set_no": 999,
        "meta_rev_at_epoch": 400,
        "meta_bstar": -0.026803849,
        "meta_mean_motion_dot": -0.02007441,
        "meta_mean_motion_ddot": 0,
        "tle_line1": "1 66949U 25286AA  25359.25004630 -.02007441  00000+0 -26804-1 0  9991",
        "tle_line2": "2 66949  53.1597 347.9542 0001442  74.2926  49.2479 15.60927452  4001"
      },
      "geometry": {
        "type": "Point",
        "coordinates": [
          -36.7191986735645,
          -26.24796797837821
        ]
      }
    },
    {
      "type": "Feature",
      "properties": {
        "norad_id": 66950,
        "name": "STARLINK-36111",
        "group": "last-30-days",
        "lat": -23.37397824856135,
        "lon": -33.938004980244344,
        "alt_km": 396.43337505483214,
        "timestamp": "2025-12-25T20:42:37.409995+00:00",
        "meta_object_name": "STARLINK-36111",
        "meta_object_id": "2025-286AB",
        "meta_epoch": "2025-12-25T06:00:04.000320",
        "meta_mean_motion": 15.60929403,
        "meta_eccentricity": 0.00013765,
        "meta_inclination": 53.1597,
        "meta_ra_of_asc_node": 347.9457,
        "meta_arg_of_pericenter": 74.6437,
        "meta_mean_anomaly": 52.7302,
        "meta_ephemeris_type": 0,
        "meta_classification_type": "U",
        "meta_norad_cat_id": 66950,
        "meta_element_set_no": 999,
        "meta_rev_at_epoch": 400,
        "meta_bstar": -0.026845906,
        "meta_mean_motion_dot": -0.02010283,
        "meta_mean_motion_ddot": 0,
        "tle_line1": "1 66950U 25286AB  25359.25004630 -.02010283  00000+0 -26846-1 0  9997",
        "tle_line2": "2 66950  53.1597 347.9457 0001376  74.6437  52.7302 15.60929403  4007"
      },
      "geometry": {
        "type": "Point",
        "coordinates": [
          -33.938004980244344,
          -23.37397824856135
        ]
      }
    },
    {
      "type": "Feature",
      "properties": {
        "norad_id": 66951,
        "name": "STARLINK-35999",
        "group": "last-30-days",
        "lat": -21.916368295639877,
        "lon": -32.59148598817941,
        "alt_km": 396.2777769412487,
        "timestamp": "2025-12-25T20:42:37.410005+00:00",
        "meta_object_name": "STARLINK-35999",
        "meta_object_id": "2025-286AC",
        "meta_epoch": "2025-12-25T06:00:04.000320",
        "meta_mean_motion": 15.60928223,
        "meta_eccentricity": 0.00013827,
        "meta_inclination": 53.1595,
        "meta_ra_of_asc_node": 347.9414,
        "meta_arg_of_pericenter": 74.7345,
        "meta_mean_anomaly": 54.5567,
        "meta_ephemeris_type": 0,
        "meta_classification_type": "U",
        "meta_norad_cat_id": 66951,
        "meta_element_set_no": 999,
        "meta_rev_at_epoch": 400,
        "meta_bstar": -0.026801012,
        "meta_mean_motion_dot": -0.02007263,
        "meta_mean_motion_ddot": 0,
        "tle_line1": "1 66951U 25286AC  25359.25004630 -.02007263  00000+0 -26801-1 0  9993",
        "tle_line2": "2 66951  53.1595 347.9414 0001382  74.7345  54.5567 15.60928223  4007"
      },
      "geometry": {
        "type": "Point",
        "coordinates": [
          -32.59148598817941,
          -21.916368295639877
        ]
      }
    },
    {
      "type": "Feature",
      "properties": {
        "norad_id": 66952,
        "name": "STARLINK-36122",
        "group": "last-30-days",
        "lat": -24.81694674689942,
        "lon": -35.3129488930172,
        "alt_km": 396.59829273761625,
        "timestamp": "2025-12-25T20:42:37.410015+00:00",
        "meta_object_name": "STARLINK-36122",
        "meta_object_id": "2025-286AD",
        "meta_epoch": "2025-12-25T06:00:04.000320",
        "meta_mean_motion": 15.60929669,
        "meta_eccentricity": 0.00014436,
        "meta_inclination": 53.1594,
        "meta_ra_of_asc_node": 347.9492,
        "meta_arg_of_pericenter": 75.4199,
        "meta_mean_anomaly": 50.0364,
        "meta_ephemeris_type": 0,
        "meta_classification_type": "U",
        "meta_norad_cat_id": 66952,
        "meta_element_set_no": 999,
        "meta_rev_at_epoch": 400,
        "meta_bstar": -0.026832759,
        "meta_mean_motion_dot": -0.0200949,
        "meta_mean_motion_ddot": 0,
        "tle_line1": "1 66952U 25286AD  25359.25004630 -.02009490  00000+0 -26833-1 0  9993",
        "tle_line2": "2 66952  53.1594 347.9492 0001443  75.4199  50.0364 15.60929669  4007"
      },
      "geometry": {
        "type": "Point",
        "coordinates": [
          -35.3129488930172,
          -24.81694674689942
        ]
      }
    },
    {
      "type": "Feature",
      "properties": {
        "norad_id": 66953,
        "name": "HULIANWANG DIGUI-114",
        "group": "last-30-days",
        "lat": -56.62202865462118,
        "lon": -23.95072272585915,
        "alt_km": 1025.4974516665015,
        "timestamp": "2025-12-25T20:42:37.410025+00:00",
        "meta_object_name": "HULIANWANG DIGUI-114",
        "meta_object_id": "2025-287A",
        "meta_epoch": "2025-12-20T09:09:14.655168",
        "meta_mean_motion": 13.66161866,
        "meta_eccentricity": 0.00096738,
        "meta_inclination": 86.496,
        "meta_ra_of_asc_node": 343.3747,
        "meta_arg_of_pericenter": 185.0352,
        "meta_mean_anomaly": 175.071,
        "meta_ephemeris_type": 0,
        "meta_classification_type": "U",
        "meta_norad_cat_id": 66953,
        "meta_element_set_no": 999,
        "meta_rev_at_epoch": 157,
        "meta_bstar": 3.033618e-06,
        "meta_mean_motion_dot": 1.9e-07,
        "meta_mean_motion_ddot": 0,
        "tle_line1": "1 66953U 25287A   25354.38141962  .00000019  00000+0  30336-5 0  9995",
        "tle_line2": "2 66953  86.4960 343.3747 0009673 185.0352 175.0710 13.66161866  1572"
      },
      "geometry": {
        "type": "Point",
        "coordinates": [
          -23.95072272585915,
          -56.62202865462118
        ]
      }
    }
  ]
}